FENGYUN 1C DEB          
1 31644U 99025CBA 17345.11057007  .00000453  00000-0  10842-3 0  9994
2 31644  98.5948  91.2832 0212025  52.7184  69.3923 14.45870956286453
